start=new Date('2021-11-11T00:00:00.000Z').valueOf();
sats=[{"EPOCH":"2021-11-10T22:00:00.999936","LAUNCH_DATE":"2021-02-16","MEAN_ELEMENT_THEORY":"SGP4","COUNTRY_CODE":"US","TLE_LINE2":"2 47635  53.0549 228.4795 0001969  51.0727 297.9796 15.06401364 42686","OBJECT_ID":"2021-012R","MEAN_MOTION":"15.06401364","OBJECT_TYPE":"PAYLOAD","REV_AT_EPOCH":"4268","TLE_LINE1":"1 47635U 21012R   21314.91667824 -.00025934  00000-0 -17284-2 0  9994","SITE":"AFETR","RA_OF_ASC_NODE":"228.4795","APOAPSIS":"548.573","DECAY_DATE":null,"EPHEMERIS_TYPE":"0","GP_ID":"189399486","PERIAPSIS":"545.846","CENTER_NAME":"EARTH","MEAN_MOTION_DOT":"-0.00025934","MEAN_MOTION_DDOT":"0.0000000000000","TIME_SYSTEM":"UTC","ARG_OF_PERICENTER":"51.0727","ECCENTRICITY":"0.00019690","INCLINATION":"53.0549","NORAD_CAT_ID":"47635","RCS_SIZE":"LARGE","SEMIMAJOR_AXIS":"6925.344","OBJECT_NAME":"STARLINK-2012","ELEMENT_SET_NO":"999","PERIOD":"95.592","MEAN_ANOMALY":"297.9796","FILE":"3210864","REF_FRAME":"TEME","CLASSIFICATION_TYPE":"U","BSTAR":"-0.00172840000000"},{"INCLINATION":"53.0539","NORAD_CAT_ID":"47636","RCS_SIZE":"LARGE","SEMIMAJOR_AXIS":"6925.319","OBJECT_NAME":"STARLINK-2013","PERIOD":"95.592","ELEMENT_SET_NO":"999","MEAN_ANOMALY":"339.5495","FILE":"3210864","REF_FRAME":"TEME","CLASSIFICATION_TYPE":"U","BSTAR":"0.00024544000000","GP_ID":"189399205","MEAN_MOTION_DOT":"0.00003377","PERIAPSIS":"542.791","CENTER_NAME":"EARTH","MEAN_MOTION_DDOT":"0.0000000000000","TIME_SYSTEM":"UTC","ARG_OF_PERICENTER":"20.5748","ECCENTRICITY":"0.00063440","OBJECT_TYPE":"PAYLOAD","REV_AT_EPOCH":"4156","TLE_LINE1":"1 47636U 21012S   21314.40592941  .00003377  00000-0  24544-3 0  9999","SITE":"AFETR","RA_OF_ASC_NODE":"305.7732","APOAPSIS":"551.578","DECAY_DATE":null,"EPHEMERIS_TYPE":"0","EPOCH":"2021-11-10T09:44:32.301024","LAUNCH_DATE":"2021-02-16","MEAN_ELEMENT_THEORY":"SGP4","COUNTRY_CODE":"US","TLE_LINE2":"2 47636  53.0539 305.7732 0006344  20.5748 339.5495 15.06409562 41565","OBJECT_ID":"2021-012S","MEAN_MOTION":"15.06409562"},{"LAUNCH_DATE":"2021-02-16","EPOCH":"2021-11-10T10:37:36.834816","MEAN_ELEMENT_THEORY":"SGP4","COUNTRY_CODE":"US","TLE_LINE2":"2 47637  53.0549 305.6134 0001837  52.7634 307.3522 15.06400505 41578","OBJECT_ID":"2021-012T","MEAN_MOTION":"15.06400505","RA_OF_ASC_NODE":"305.6134","DECAY_DATE":null,"APOAPSIS":"548.484","EPHEMERIS_TYPE":"0","TLE_LINE1":"1 47637U 21012T   21314.44278744  .00000044  00000-0  21856-4 0  9998","REV_AT_EPOCH":"4157","OBJECT_TYPE":"PAYLOAD","SITE":"AFETR","ARG_OF_PERICENTER":"52.7634","ECCENTRICITY":"0.00018370","PERIAPSIS":"545.940","MEAN_MOTION_DOT":"0.00000044","CENTER_NAME":"EARTH","GP_ID":"189369060","MEAN_MOTION_DDOT":"0.0000000000000","TIME_SYSTEM":"UTC","FILE":"3210581","CLASSIFICATION_TYPE":"U","REF_FRAME":"TEME","BSTAR":"0.00002185600000","RCS_SIZE":"LARGE","INCLINATION":"53.0549","NORAD_CAT_ID":"47637","SEMIMAJOR_AXIS":"6925.347","ELEMENT_SET_NO":"999","PERIOD":"95.592","OBJECT_NAME":"STARLINK-2014","MEAN_ANOMALY":"307.3522"},{"SITE":"AFETR","OBJECT_TYPE":"PAYLOAD","TLE_LINE1":"1 47638U 21012U   21314.50170223 -.00000638  00000-0 -24640-4 0  9994","REV_AT_EPOCH":"4312","EPHEMERIS_TYPE":"0","APOAPSIS":"551.317","DECAY_DATE":null,"RA_OF_ASC_NODE":"230.3754","OBJECT_ID":"2021-012U","TLE_LINE2":"2 47638  53.0538 230.3754 0002256  50.1683 309.9504 15.05571429 43125","MEAN_MOTION":"15.05571429","COUNTRY_CODE":"US","MEAN_ELEMENT_THEORY":"SGP4","EPOCH":"2021-11-10T12:02:27.072672","LAUNCH_DATE":"2021-02-16","MEAN_ANOMALY":"309.9504","OBJECT_NAME":"STARLINK-2015","PERIOD":"95.645","ELEMENT_SET_NO":"999","SEMIMAJOR_AXIS":"6927.889","NORAD_CAT_ID":"47638","INCLINATION":"53.0538","RCS_SIZE":"LARGE","BSTAR":"-0.00002464000000","REF_FRAME":"TEME","CLASSIFICATION_TYPE":"U","FILE":"3211038","TIME_SYSTEM":"UTC","MEAN_MOTION_DDOT":"0.0000000000000","GP_ID":"189424912","PERIAPSIS":"548.191","MEAN_MOTION_DOT":"-0.00000638","CENTER_NAME":"EARTH","ECCENTRICITY":"0.00022560","ARG_OF_PERICENTER":"50.1683"},{"TIME_SYSTEM":"UTC","MEAN_MOTION_DDOT":"0.0000000000000","GP_ID":"189423736","PERIAPSIS":"546.130","CENTER_NAME":"EARTH","MEAN_MOTION_DOT":"0.00000682","ECCENTRICITY":"0.00015540","ARG_OF_PERICENTER":"65.9376","MEAN_ANOMALY":"294.1775","OBJECT_NAME":"STARLINK-2016","ELEMENT_SET_NO":"999","PERIOD":"95.592","SEMIMAJOR_AXIS":"6925.341","INCLINATION":"53.0540","NORAD_CAT_ID":"47639","RCS_SIZE":"LARGE","BSTAR":"0.00006470100000","REF_FRAME":"TEME","CLASSIFICATION_TYPE":"U","FILE":"3211038","OBJECT_ID":"2021-012V","TLE_LINE2":"2 47639  53.0540 305.7050 0001554  65.9376 294.1775 15.06402334 42064","MEAN_MOTION":"15.06402334","COUNTRY_CODE":"US","MEAN_ELEMENT_THEORY":"SGP4","EPOCH":"2021-11-10T10:05:46.716576","LAUNCH_DATE":"2021-02-16","SITE":"AFETR","OBJECT_TYPE":"PAYLOAD","REV_AT_EPOCH":"4206","TLE_LINE1":"1 47639U 21012V   21314.42067959  .00000682  00000-0  64701-4 0  9996","EPHEMERIS_TYPE":"0","APOAPSIS":"548.283","DECAY_DATE":null,"RA_OF_ASC_NODE":"305.7050"},{"BSTAR":"0.00016376000000","CLASSIFICATION_TYPE":"U","REF_FRAME":"TEME","FILE":"3211038","MEAN_ANOMALY":"285.9641","PERIOD":"95.592","ELEMENT_SET_NO":"999","OBJECT_NAME":"STARLINK-2018","SEMIMAJOR_AXIS":"6925.325","RCS_SIZE":"LARGE","NORAD_CAT_ID":"47640","INCLINATION":"53.0545","ECCENTRICITY":"0.00015510","ARG_OF_PERICENTER":"74.1519","TIME_SYSTEM":"UTC","MEAN_MOTION_DDOT":"0.0000000000000","PERIAPSIS":"546.116","MEAN_MOTION_DOT":"0.00002159","CENTER_NAME":"EARTH","GP_ID":"189424987","EPHEMERIS_TYPE":"0","DECAY_DATE":null,"APOAPSIS":"548.264","RA_OF_ASC_NODE":"326.0512","SITE":"AFETR","REV_AT_EPOCH":"4179","TLE_LINE1":"1 47640U 21012W   21314.34881986  .00002159  00000-0  16376-3 0  9998","OBJECT_TYPE":"PAYLOAD","MEAN_MOTION":"15.06407801","TLE_LINE2":"2 47640  53.0545 326.0512 0001551  74.1519 285.9641 15.06407801 41791","OBJECT_ID":"2021-012W","COUNTRY_CODE":"US","MEAN_ELEMENT_THEORY":"SGP4","LAUNCH_DATE":"2021-02-16","EPOCH":"2021-11-10T08:22:18.035904"},{"BSTAR":"-0.00185380000000","FILE":"3211038","CLASSIFICATION_TYPE":"U","REF_FRAME":"TEME","ELEMENT_SET_NO":"999","PERIOD":"95.591","OBJECT_NAME":"STARLINK-2019","MEAN_ANOMALY":"89.1987","RCS_SIZE":"LARGE","NORAD_CAT_ID":"47641","INCLINATION":"53.0535","SEMIMAJOR_AXIS":"6925.314","ECCENTRICITY":"0.00022240","ARG_OF_PERICENTER":"54.7119","TIME_SYSTEM":"UTC","MEAN_MOTION_DOT":"-0.00027796","PERIAPSIS":"545.638","CENTER_NAME":"EARTH","GP_ID":"189425214","MEAN_MOTION_DDOT":"0.0000000000000","DECAY_DATE":null,"APOAPSIS":"548.719","EPHEMERIS_TYPE":"0","RA_OF_ASC_NODE":"228.4803","REV_AT_EPOCH":"358","TLE_LINE1":"1 47641U 21012X   21314.91667824 -.00027796  00000-0 -18538-2 0  9992","OBJECT_TYPE":"PAYLOAD","SITE":"AFETR","COUNTRY_CODE":"US","MEAN_MOTION":"15.06411428","TLE_LINE2":"2 47641  53.0535 228.4803 0002224  54.7119  89.1987 15.06411428  3589","OBJECT_ID":"2021-012X","LAUNCH_DATE":"2021-02-16","EPOCH":"2021-11-10T22:00:00.999936","MEAN_ELEMENT_THEORY":"SGP4"},{"REF_FRAME":"TEME","CLASSIFICATION_TYPE":"U","FILE":"3210865","BSTAR":"0.00421390000000","SEMIMAJOR_AXIS":"6928.659","NORAD_CAT_ID":"47642","INCLINATION":"53.0552","RCS_SIZE":"LARGE","MEAN_ANOMALY":"280.9643","OBJECT_NAME":"STARLINK-2020","PERIOD":"95.661","ELEMENT_SET_NO":"999","ARG_OF_PERICENTER":"79.1876","ECCENTRICITY":"0.00047140","MEAN_MOTION_DDOT":"0.0000000000000","GP_ID":"189399219","CENTER_NAME":"EARTH","PERIAPSIS":"547.258","MEAN_MOTION_DOT":"0.00061231","TIME_SYSTEM":"UTC","RA_OF_ASC_NODE":"319.5522","EPHEMERIS_TYPE":"0","APOAPSIS":"553.790","DECAY_DATE":null,"SITE":"AFETR","OBJECT_TYPE":"PAYLOAD","REV_AT_EPOCH":"4139","TLE_LINE1":"1 47642U 21012Y   21314.68435779  .00061231  00000-0  42139-2 0  9993","MEAN_ELEMENT_THEORY":"SGP4","EPOCH":"2021-11-10T16:25:28.513056","LAUNCH_DATE":"2021-02-16","OBJECT_ID":"2021-012Y","TLE_LINE2":"2 47642  53.0552 319.5522 0004714  79.1876 280.9643 15.05320582 41396","MEAN_MOTION":"15.05320582","COUNTRY_CODE":"US"},{"BSTAR":"0.00000948010000","FILE":"3211038","CLASSIFICATION_TYPE":"U","REF_FRAME":"TEME","ELEMENT_SET_NO":"999","PERIOD":"95.592","OBJECT_NAME":"STARLINK-2022","MEAN_ANOMALY":"291.6473","RCS_SIZE":"LARGE","INCLINATION":"53.0534","NORAD_CAT_ID":"47643","SEMIMAJOR_AXIS":"6925.347","ECCENTRICITY":"0.00015350","ARG_OF_PERICENTER":"68.4680","TIME_SYSTEM":"UTC","CENTER_NAME":"EARTH","PERIAPSIS":"546.149","MEAN_MOTION_DOT":"-0.00000140","GP_ID":"189424236","MEAN_MOTION_DDOT":"0.0000000000000","DECAY_DATE":null,"APOAPSIS":"548.275","EPHEMERIS_TYPE":"0","RA_OF_ASC_NODE":"305.9375","TLE_LINE1":"1 47643U 21012Z   21314.36906822 -.00000140  00000-0  94801-5 0  9990","REV_AT_EPOCH":"4207","OBJECT_TYPE":"PAYLOAD","SITE":"AFETR","COUNTRY_CODE":"US","TLE_LINE2":"2 47643  53.0534 305.9375 0001535  68.4680 291.6473 15.06400559 42074","OBJECT_ID":"2021-012Z","MEAN_MOTION":"15.06400559","LAUNCH_DATE":"2021-02-16","EPOCH":"2021-11-10T08:51:27.494208","MEAN_ELEMENT_THEORY":"SGP4"},{"DECAY_DATE":null,"APOAPSIS":"548.131","EPHEMERIS_TYPE":"0","RA_OF_ASC_NODE":"325.3040","REV_AT_EPOCH":"4130","TLE_LINE1":"1 47644U 21012AA  21314.51466572  .00000735  00000-0  68232-4 0  9998","OBJECT_TYPE":"PAYLOAD","SITE":"AFETR","COUNTRY_CODE":"US","TLE_LINE2":"2 47644  53.0542 325.3040 0001337  73.4854 286.6282 15.06402870 41303","MEAN_MOTION":"15.06402870","OBJECT_ID":"2021-012AA","LAUNCH_DATE":"2021-02-16","EPOCH":"2021-11-10T12:21:07.118208","MEAN_ELEMENT_THEORY":"SGP4","BSTAR":"0.00006823200000","FILE":"3210866","CLASSIFICATION_TYPE":"U","REF_FRAME":"TEME","ELEMENT_SET_NO":"999","PERIOD":"95.592","OBJECT_NAME":"STARLINK-2026","MEAN_ANOMALY":"286.6282","RCS_SIZE":"LARGE","INCLINATION":"53.0542","NORAD_CAT_ID":"47644","SEMIMAJOR_AXIS":"6925.340","ECCENTRICITY":"0.00013370","ARG_OF_PERICENTER":"73.4854","TIME_SYSTEM":"UTC","PERIAPSIS":"546.279","CENTER_NAME":"EARTH","MEAN_MOTION_DOT":"0.00000735","GP_ID":"189399227","MEAN_MOTION_DDOT":"0.0000000000000"}];
